start=new Date('2022-10-22T00:00:00.000Z').valueOf();
sats=[{"BSTAR":"0.00002087400000","MEAN_ANOMALY":"279.4481","TLE_LINE1":"1 46135U 20057U   22294.64161166  .00000029  00000-0  20874-4 0  9999","ARG_OF_PERICENTER":"80.6674","OBJECT_NAME":"STARLINK-1639","EPHEMERIS_TYPE":"0","RCS_SIZE":"LARGE","APOAPSIS":"548.261","DECAY_DATE":null,"PERIOD":"95.593","MEAN_ELEMENT_THEORY":"SGP4","GP_ID":"215840785","OBJECT_TYPE":"PAYLOAD","RA_OF_ASC_NODE":"60.9685","REF_FRAME":"TEME","MEAN_MOTION_DDOT":"0.0000000000000","EPOCH":"2022-10-21T15:23:55.247424","CLASSIFICATION_TYPE":"U","FILE":"3628413","OBJECT_ID":"2020-057U","COUNTRY_CODE":"US","LAUNCH_DATE":"2020-08-18","NORAD_CAT_ID":"46135","ELEMENT_SET_NO":"999","SITE":"AFETR","ECCENTRICITY":"0.00014660","INCLINATION":"53.0564","REV_AT_EPOCH":"12047","TLE_LINE2":"2 46135  53.0564  60.9685 0001466  80.6674 279.4481 15.06389433120477","CENTER_NAME":"EARTH","MEAN_MOTION_DOT":"0.00000029","TIME_SYSTEM":"UTC","PERIAPSIS":"546.231","SEMIMAJOR_AXIS":"6925.381","MEAN_MOTION":"15.06389433"},{"REV_AT_EPOCH":"12004","TLE_LINE2":"2 46136  53.0530  91.3224 0001339  95.0415 265.0727 15.06405585120044","CENTER_NAME":"EARTH","MEAN_MOTION_DOT":"0.00003261","TIME_SYSTEM":"UTC","SEMIMAJOR_AXIS":"6925.331","PERIAPSIS":"546.269","MEAN_MOTION":"15.06405585","OBJECT_ID":"2020-057V","COUNTRY_CODE":"US","LAUNCH_DATE":"2020-08-18","ELEMENT_SET_NO":"999","NORAD_CAT_ID":"46136","SITE":"AFETR","ECCENTRICITY":"0.00013390","INCLINATION":"53.0530","GP_ID":"215839535","OBJECT_TYPE":"PAYLOAD","RA_OF_ASC_NODE":"91.3224","REF_FRAME":"TEME","MEAN_MOTION_DDOT":"0.0000000000000","EPOCH":"2022-10-21T13:21:47.617632","CLASSIFICATION_TYPE":"U","FILE":"3628413","BSTAR":"0.00023767000000","MEAN_ANOMALY":"265.0727","TLE_LINE1":"1 46136U 20057V   22294.55680113  .00003261  00000-0  23767-3 0  9992","OBJECT_NAME":"STARLINK-1643","ARG_OF_PERICENTER":"95.0415","EPHEMERIS_TYPE":"0","RCS_SIZE":"LARGE","DECAY_DATE":null,"APOAPSIS":"548.124","PERIOD":"95.592","MEAN_ELEMENT_THEORY":"SGP4"},{"TIME_SYSTEM":"UTC","PERIAPSIS":"546.371","SEMIMAJOR_AXIS":"6925.344","MEAN_MOTION":"15.06401605","MEAN_MOTION_DOT":"0.00000769","TLE_LINE2":"2 46137  53.0558  80.3699 0001209  64.7946 295.3168 15.06401605120210","CENTER_NAME":"EARTH","REV_AT_EPOCH":"12021","INCLINATION":"53.0558","NORAD_CAT_ID":"46137","ELEMENT_SET_NO":"999","SITE":"AFETR","ECCENTRICITY":"0.00012090","OBJECT_ID":"2020-057W","COUNTRY_CODE":"US","LAUNCH_DATE":"2020-08-18","FILE":"3628413","MEAN_MOTION_DDOT":"0.0000000000000","CLASSIFICATION_TYPE":"U","EPOCH":"2022-10-21T18:37:38.165088","REF_FRAME":"TEME","GP_ID":"215839784","OBJECT_TYPE":"PAYLOAD","RA_OF_ASC_NODE":"80.3699","PERIOD":"95.592","MEAN_ELEMENT_THEORY":"SGP4","EPHEMERIS_TYPE":"0","RCS_SIZE":"LARGE","APOAPSIS":"548.046","DECAY_DATE":null,"ARG_OF_PERICENTER":"64.7946","OBJECT_NAME":"STARLINK-1586","BSTAR":"0.00007048200000","TLE_LINE1":"1 46137U 20057W   22294.77613617  .00000769  00000-0  70482-4 0  9999","MEAN_ANOMALY":"295.3168"},{"SITE":"AFETR","ECCENTRICITY":"0.00013850","NORAD_CAT_ID":"46138","ELEMENT_SET_NO":"999","INCLINATION":"53.0551","OBJECT_ID":"2020-057X","LAUNCH_DATE":"2020-08-18","COUNTRY_CODE":"US","MEAN_MOTION_DOT":"0.00000149","TIME_SYSTEM":"UTC","MEAN_MOTION":"15.06400094","PERIAPSIS":"546.254","SEMIMAJOR_AXIS":"6925.348","REV_AT_EPOCH":"11990","TLE_LINE2":"2 46138  53.0551 101.2701 0001385 112.7039 247.4096 15.06400094119906","CENTER_NAME":"EARTH","EPHEMERIS_TYPE":"0","RCS_SIZE":"LARGE","DECAY_DATE":null,"APOAPSIS":"548.172","PERIOD":"95.592","MEAN_ELEMENT_THEORY":"SGP4","BSTAR":"0.00002887100000","MEAN_ANOMALY":"247.4096","TLE_LINE1":"1 46138U 20057X   22294.57525912  .00000149  00000-0  28871-4 0  9995","OBJECT_NAME":"STARLINK-1590","ARG_OF_PERICENTER":"112.7039","EPOCH":"2022-10-21T13:48:22.387968","CLASSIFICATION_TYPE":"U","MEAN_MOTION_DDOT":"0.0000000000000","FILE":"3628413","GP_ID":"215840535","RA_OF_ASC_NODE":"101.2701","OBJECT_TYPE":"PAYLOAD","REF_FRAME":"TEME"},{"OBJECT_ID":"2020-057Z","LAUNCH_DATE":"2020-08-18","COUNTRY_CODE":"US","INCLINATION":"53.0542","SITE":"AFETR","ECCENTRICITY":"0.00017870","ELEMENT_SET_NO":"999","NORAD_CAT_ID":"46140","TLE_LINE2":"2 46140  53.0542  60.5362 0001787  56.4602 303.6557 15.06405339121755","CENTER_NAME":"EARTH","REV_AT_EPOCH":"12175","TIME_SYSTEM":"UTC","SEMIMAJOR_AXIS":"6925.332","PERIAPSIS":"545.960","MEAN_MOTION":"15.06405339","MEAN_MOTION_DOT":"0.00003270","OBJECT_NAME":"STARLINK-1594","ARG_OF_PERICENTER":"56.4602","BSTAR":"0.00023830000000","MEAN_ANOMALY":"303.6557","TLE_LINE1":"1 46140U 20057Z   22294.73374835  .00003270  00000-0  23830-3 0  9999","PERIOD":"95.592","MEAN_ELEMENT_THEORY":"SGP4","RCS_SIZE":"LARGE","EPHEMERIS_TYPE":"0","DECAY_DATE":null,"APOAPSIS":"548.435","REF_FRAME":"TEME","GP_ID":"215841284","RA_OF_ASC_NODE":"60.5362","OBJECT_TYPE":"PAYLOAD","FILE":"3628413","CLASSIFICATION_TYPE":"U","EPOCH":"2022-10-21T17:36:35.857440","MEAN_MOTION_DDOT":"0.0000000000000"},{"BSTAR":"0.00001442800000","MEAN_ANOMALY":"280.5910","TLE_LINE1":"1 46141U 20057AA  22294.64528372 -.00000066  00000-0  14428-4 0  9992","OBJECT_NAME":"STARLINK-1596","ARG_OF_PERICENTER":"79.5223","EPHEMERIS_TYPE":"0","RCS_SIZE":"LARGE","APOAPSIS":"548.076","DECAY_DATE":null,"PERIOD":"95.592","MEAN_ELEMENT_THEORY":"SGP4","GP_ID":"215831496","OBJECT_TYPE":"PAYLOAD","RA_OF_ASC_NODE":"60.9350","REF_FRAME":"TEME","MEAN_MOTION_DDOT":"0.0000000000000","EPOCH":"2022-10-21T15:29:12.513408","CLASSIFICATION_TYPE":"U","FILE":"3628413","OBJECT_ID":"2020-057AA","COUNTRY_CODE":"US","LAUNCH_DATE":"2020-08-18","NORAD_CAT_ID":"46141","ELEMENT_SET_NO":"999","SITE":"AFETR","ECCENTRICITY":"0.00012760","INCLINATION":"53.0555","REV_AT_EPOCH":"12047","TLE_LINE2":"2 46141  53.0555  60.9350 0001276  79.5223 280.5910 15.06407007120477","CENTER_NAME":"EARTH","MEAN_MOTION_DOT":"-0.00000066","TIME_SYSTEM":"UTC","SEMIMAJOR_AXIS":"6925.327","PERIAPSIS":"546.308","MEAN_MOTION":"15.06407007"},{"OBJECT_ID":"2020-057AB","COUNTRY_CODE":"US","LAUNCH_DATE":"2020-08-18","ELEMENT_SET_NO":"999","NORAD_CAT_ID":"46142","SITE":"AFETR","ECCENTRICITY":"0.00014390","INCLINATION":"53.0547","REV_AT_EPOCH":"11992","TLE_LINE2":"2 46142  53.0547 100.5729 0001439 115.1529 244.9609 15.06398797119929","CENTER_NAME":"EARTH","MEAN_MOTION_DOT":"0.00001614","TIME_SYSTEM":"UTC","PERIAPSIS":"546.221","SEMIMAJOR_AXIS":"6925.352","MEAN_MOTION":"15.06398797","BSTAR":"0.00012725000000","MEAN_ANOMALY":"244.9609","TLE_LINE1":"1 46142U 20057AB  22294.73006488  .00001614  00000-0  12725-3 0  9998","ARG_OF_PERICENTER":"115.1529","OBJECT_NAME":"STARLINK-1597","EPHEMERIS_TYPE":"0","RCS_SIZE":"LARGE","APOAPSIS":"548.214","DECAY_DATE":null,"PERIOD":"95.592","MEAN_ELEMENT_THEORY":"SGP4","GP_ID":"215840283","RA_OF_ASC_NODE":"100.5729","OBJECT_TYPE":"PAYLOAD","REF_FRAME":"TEME","MEAN_MOTION_DDOT":"0.0000000000000","EPOCH":"2022-10-21T17:31:17.605632","CLASSIFICATION_TYPE":"U","FILE":"3628413"},{"BSTAR":"0.00007547200000","TLE_LINE1":"1 46144U 20057AD  22293.89888777  .00000843  00000-0  75472-4 0  9997","MEAN_ANOMALY":"263.0394","ARG_OF_PERICENTER":"97.0754","OBJECT_NAME":"STARLINK-1606","EPHEMERIS_TYPE":"0","RCS_SIZE":"LARGE","APOAPSIS":"548.197","DECAY_DATE":null,"PERIOD":"95.593","MEAN_ELEMENT_THEORY":"SGP4","GP_ID":"215774734","RA_OF_ASC_NODE":"84.2922","OBJECT_TYPE":"PAYLOAD","REF_FRAME":"TEME","CLASSIFICATION_TYPE":"U","EPOCH":"2022-10-20T21:34:23.903328","MEAN_MOTION_DDOT":"0.0000000000000","FILE":"3627579","OBJECT_ID":"2020-057AD","LAUNCH_DATE":"2020-08-18","COUNTRY_CODE":"US","ECCENTRICITY":"0.00013950","SITE":"AFETR","NORAD_CAT_ID":"46144","ELEMENT_SET_NO":"999","INCLINATION":"53.0544","REV_AT_EPOCH":"10833","TLE_LINE2":"2 46144  53.0544  84.2922 0001395  97.0754 263.0394 15.06394330108335","CENTER_NAME":"EARTH","MEAN_MOTION_DOT":"0.00000843","TIME_SYSTEM":"UTC","MEAN_MOTION":"15.06394330","PERIAPSIS":"546.265","SEMIMAJOR_AXIS":"6925.366"},{"BSTAR":"0.00013922000000","TLE_LINE1":"1 46146U 20057AF  22294.21034530  .00001793  00000-0  13922-3 0  9992","MEAN_ANOMALY":"255.6541","OBJECT_NAME":"STARLINK-1608","ARG_OF_PERICENTER":"104.4603","EPHEMERIS_TYPE":"0","RCS_SIZE":"LARGE","DECAY_DATE":null,"APOAPSIS":"548.153","PERIOD":"95.592","MEAN_ELEMENT_THEORY":"SGP4","GP_ID":"215774976","RA_OF_ASC_NODE":"102.9133","OBJECT_TYPE":"PAYLOAD","REF_FRAME":"TEME","CLASSIFICATION_TYPE":"U","EPOCH":"2022-10-21T05:02:53.833920","MEAN_MOTION_DDOT":"0.0000000000000","FILE":"3627579","OBJECT_ID":"2020-057AF","LAUNCH_DATE":"2020-08-18","COUNTRY_CODE":"US","SITE":"AFETR","ECCENTRICITY":"0.00013950","NORAD_CAT_ID":"46146","ELEMENT_SET_NO":"999","INCLINATION":"53.0561","REV_AT_EPOCH":"11985","TLE_LINE2":"2 46146  53.0561 102.9133 0001395 104.4603 255.6541 15.06408565119850","CENTER_NAME":"EARTH","MEAN_MOTION_DOT":"0.00001793","TIME_SYSTEM":"UTC","PERIAPSIS":"546.221","SEMIMAJOR_AXIS":"6925.322","MEAN_MOTION":"15.06408565"},{"CENTER_NAME":"EARTH","TLE_LINE2":"2 46147  53.0539 100.3073 0001340 114.1245 245.9884 15.06390465120595","REV_AT_EPOCH":"12059","PERIAPSIS":"546.315","MEAN_MOTION":"15.06390465","SEMIMAJOR_AXIS":"6925.378","TIME_SYSTEM":"UTC","MEAN_MOTION_DOT":"0.00000242","COUNTRY_CODE":"US","LAUNCH_DATE":"2020-08-18","OBJECT_ID":"2020-057AG","INCLINATION":"53.0539","ELEMENT_SET_NO":"999","NORAD_CAT_ID":"46147","SITE":"AFETR","ECCENTRICITY":"0.00013400","REF_FRAME":"TEME","RA_OF_ASC_NODE":"100.3073","OBJECT_TYPE":"PAYLOAD","GP_ID":"215806484","FILE":"3627715","MEAN_MOTION_DDOT":"0.0000000000000","CLASSIFICATION_TYPE":"U","EPOCH":"2022-10-21T18:56:13.419744","OBJECT_NAME":"STARLINK-1611","ARG_OF_PERICENTER":"114.1245","TLE_LINE1":"1 46147U 20057AG  22294.78904421  .00000242  00000-0  35131-4 0  9995","MEAN_ANOMALY":"245.9884","BSTAR":"0.00003513100000","MEAN_ELEMENT_THEORY":"SGP4","PERIOD":"95.593","APOAPSIS":"548.171","DECAY_DATE":null,"RCS_SIZE":"LARGE","EPHEMERIS_TYPE":"0"}];
